NORAD_CAT_ID,OBJECT_NAME,OBJECT_TYPE,EPOCH,MEAN_MOTION,ECCENTRICITY,INCLINATION,RA_OF_ASC_NODE,ARG_OF_PERICENTER,MEAN_ANOMALY,BSTAR,MEAN_MOTION_DOT,MEAN_MOTION_DDOT,TLE_LINE0,TLE_LINE1,TLE_LINE2,SEMIMAJOR_AXIS,PERIOD,APOGEE,PERIGEE,DECAYED
53978.0,STARLINK-5148,PAYLOAD,2023-02-01 01:10:37,15.0885014,0.0001533,53.2148,263.6311,90.6659,269.4509,0.00035512,5.37e-05,0.0,0 STARLINK-5148,1 53978U 22125Q   23032.04904444  .00005370  00000-0  35512-3 0  9997,2 53978  53.2148 263.6311 0001533  90.6659 269.4509 15.08850140 18473,6917.849,95.437,540.775,538.654,0.0
53978.0,STARLINK-5148,PAYLOAD,2023-02-01 13:53:42,15.08842008,0.0001461,53.2144,261.252,89.826,270.29,2.8065e-05,1.59e-06,0.0,0 STARLINK-5148,1 53978U 22125Q   23032.57896595  .00000159  00000-0  28065-4 0  9998,2 53978  53.2144 261.2520 0001461  89.8260 270.2900 15.08842008 18483,6917.874,95.437,540.75,538.729,0.0
53978.0,STARLINK-5148,PAYLOAD,2023-02-01 18:39:52,15.08842326,0.0001479,53.2145,260.3598,87.2353,272.8809,3.8006e-05,3.17e-06,0.0,0 STARLINK-5148,1 53978U 22125Q   23032.77768640  .00000317  00000-0  38006-4 0  9991,2 53978  53.2145 260.3598 0001479  87.2353 272.8809 15.08842326 18583,6917.873,95.437,540.761,538.715,0.0
53978.0,STARLINK-5148,PAYLOAD,2023-02-02 13:44:29,15.08839716,0.0001504,53.2144,256.7924,83.9293,276.1871,4.2852e-05,3.94e-06,0.0,0 STARLINK-5148,1 53978U 22125Q   23033.57256760  .00000394  00000-0  42852-4 0  9994,2 53978  53.2144 256.7924 0001504  83.9293 276.1871 15.08839716 18630,6917.881,95.438,540.787,538.706,0.0
53978.0,STARLINK-5148,PAYLOAD,2023-02-02 23:16:48,15.0884598,0.0001483,53.2144,255.0083,83.766,276.3501,6.1557e-05,6.92e-06,0.0,0 STARLINK-5148,1 53978U 22125Q   23033.97000393  .00000692  00000-0  61557-4 0  9991,2 53978  53.2144 255.0083 0001483  83.7660 276.3501 15.08845980 18766,6917.862,95.437,540.753,538.701,0.0
53978.0,STARLINK-5148,PAYLOAD,2023-02-03 15:10:40,15.08833436,0.0001493,53.2141,252.0346,82.0976,278.0186,3.2339e-05,2.27e-06,0.0,0 STARLINK-5148,1 53978U 22125Q   23034.63241145  .00000227  00000-0  32339-4 0  9997,2 53978  53.2141 252.0346 0001493  82.0976 278.0186 15.08833436 18799,6917.9,95.438,540.798,538.733,0.0
53978.0,STARLINK-5148,PAYLOAD,2023-02-04 13:26:04,15.08840375,0.0001439,53.2141,247.8716,85.4272,274.6885,0.00010721,1.419e-05,0.0,0 STARLINK-5148,1 53978U 22125Q   23035.55976883  .00001419  00000-0  10721-3 0  9997,2 53978  53.2141 247.8716 0001439  85.4272 274.6885 15.08840375 18932,6917.879,95.438,540.74,538.749,0.0
53978.0,STARLINK-5148,PAYLOAD,2023-02-04 19:47:36,15.08844219,0.0001419,53.2141,246.682,86.429,273.6864,0.00010294,1.351e-05,0.0,0 STARLINK-5148,1 53978U 22125Q   23035.82472643  .00001351  00000-0  10294-3 0  9992,2 53978  53.2141 246.6820 0001419  86.4290 273.6864 15.08844219 19044,6917.867,95.437,540.714,538.751,0.0
53978.0,STARLINK-5148,PAYLOAD,2023-02-04 21:22:59,15.08844217,0.000142,53.2141,246.3846,86.3004,273.815,9.9017e-05,1.288e-05,0.0,0 STARLINK-5148,1 53978U 22125Q   23035.89096614  .00001288  00000-0  99017-4 0  9999,2 53978  53.2141 246.3846 0001420  86.3004 273.8150 15.08844217 18983,6917.867,95.437,540.715,538.75,0.0
53978.0,STARLINK-5148,PAYLOAD,2023-02-05 13:16:51,15.08837091,0.0001275,53.2129,243.4083,84.0745,276.0393,2.0659e-05,4.1e-07,0.0,0 STARLINK-5148,1 53978U 22125Q   23036.55337079  .00000041  00000-0  20659-4 0  9998,2 53978  53.2129 243.4083 0001275  84.0745 276.0393 15.08837091 19083,6917.889,95.438,540.636,538.872,0.0
53978.0,STARLINK-5148,PAYLOAD,2023-02-05 19:38:23,15.08839337,0.0001198,53.2142,242.2189,94.6396,265.4733,5.4382e-05,5.78e-06,0.0,0 STARLINK-5148,1 53978U 22125Q   23036.81833211  .00000578  00000-0  54382-4 0  9991,2 53978  53.2142 242.2189 0001198  94.6396 265.4733 15.08839337 19192,6917.882,95.438,540.576,538.919,0.0
53978.0,STARLINK-5148,PAYLOAD,2023-02-05 21:13:47,15.0883851,0.0001073,53.2143,241.9217,86.9311,273.1804,6.1348e-05,6.89e-06,0.0,0 STARLINK-5148,1 53978U 22125Q   23036.88457249  .00000689  00000-0  61348-4 0  9994,2 53978  53.2143 241.9217 0001073  86.9311 273.1804 15.08838510 19135,6917.885,95.438,540.492,539.008,0.0
53978.0,STARLINK-5148,PAYLOAD,2023-02-06 13:07:38,15.08843053,0.000124,53.2143,238.9486,95.9101,264.2032,4.8054e-05,4.77e-06,0.0,0 STARLINK-5148,1 53978U 22125Q   23037.54697190  .00000477  00000-0  48054-4 0  9993,2 53978  53.2143 238.9486 0001240  95.9101 264.2032 15.08843053 19235,6917.871,95.437,540.594,538.878,0.0
53978.0,STARLINK-5148,PAYLOAD,2023-02-06 19:29:10,15.0884388,0.0001285,53.2149,237.7602,90.1975,269.9164,6.2677e-05,7.1e-06,0.0,0 STARLINK-5148,1 53978U 22125Q   23037.81193090  .00000710  00000-0  62677-4 0  9990,2 53978  53.2149 237.7602 0001285  90.1975 269.9164 15.08843880 19273,6917.869,95.437,540.622,538.845,0.0
53978.0,STARLINK-5148,PAYLOAD,2023-02-06 22:39:56,15.08845979,0.0001292,53.2146,237.1652,89.092,271.022,7.4368e-05,8.96e-06,0.0,0 STARLINK-5148,1 53978U 22125Q   23037.94440905  .00000896  00000-0  74368-4 0  9999,2 53978  53.2146 237.1652 0001292  89.0920 271.0220 15.08845979 19362,6917.862,95.437,540.621,538.833,0.0
53978.0,STARLINK-5148,PAYLOAD,2023-02-07 12:58:25,15.08840851,0.0001146,53.2154,234.4902,79.0659,281.0462,0.00014225,1.977e-05,0.0,0 STARLINK-5148,1 53978U 22125Q   23038.54057117  .00001977  00000-0  14225-3 0  9991,2 53978  53.2154 234.4902 0001146  79.0659 281.0462 15.08840851 19380,6917.878,95.438,540.536,538.95,0.0
53978.0,STARLINK-5148,PAYLOAD,2023-02-07 19:19:57,15.08845381,0.0001238,53.2133,233.2999,82.0057,278.1076,0.00019863,2.875e-05,0.0,0 STARLINK-5148,1 53978U 22125Q   23038.80552989  .00002875  00000-0  19863-3 0  9998,2 53978  53.2133 233.2999 0001238  82.0057 278.1076 15.08845381 19424,6917.864,95.437,540.585,538.873,0.0
53978.0,STARLINK-5148,PAYLOAD,2023-02-08 12:49:12,15.08840022,0.0001247,53.213,230.0293,77.6199,282.4933,5.4674e-05,5.82e-06,0.0,0 STARLINK-5148,1 53978U 22125Q   23039.53417332  .00000582  00000-0  54674-4 0  9994,2 53978  53.2130 230.0293 0001247  77.6199 282.4933 15.08840022 19539,6917.88,95.438,540.608,538.883,0.0
53978.0,STARLINK-5148,PAYLOAD,2023-02-08 19:10:44,15.08841475,0.0001136,53.2148,228.8401,86.0888,274.0234,5.1502e-05,5.32e-06,0.0,0 STARLINK-5148,1 53978U 22125Q   23039.79913165  .00000532  00000-0  51502-4 0  9999,2 53978  53.2148 228.8401 0001136  86.0888 274.0234 15.08841475 19646,6917.876,95.437,540.527,538.955,0.0
53978.0,STARLINK-5148,PAYLOAD,2023-02-09 19:01:32,15.08847371,0.0001175,53.2156,224.3806,85.3501,274.7625,-7.3412e-05,-1.456e-05,0.0,0 STARLINK-5148,1 53978U 22125Q   23040.79273210 -.00001456  00000-0 -73412-4 0  9993,2 53978  53.2156 224.3806 0001175  85.3501 274.7625 15.08847371 19723,6917.858,95.437,540.536,538.91,0.0
53978.0,STARLINK-5148,PAYLOAD,2023-02-10 04:33:51,15.0884178,0.000109,53.2156,222.5961,80.6986,279.413,1.6953e-05,-1.8e-07,0.0,0 STARLINK-5148,1 53978U 22125Q   23041.19017444 -.00000018  00000-0  16953-4 0  9992,2 53978  53.2156 222.5961 0001090  80.6986 279.4130 15.08841780 19851,6917.875,95.437,540.494,538.986,0.0
53978.0,STARLINK-5148,PAYLOAD,2023-02-10 15:41:33,15.0884008,0.0001014,53.2154,220.5141,80.3947,279.7159,9.1794e-05,1.173e-05,0.0,0 STARLINK-5148,1 53978U 22125Q   23041.65385499  .00001173  00000-0  91794-4 0  9999,2 53978  53.2154 220.5141 0001014  80.3947 279.7159 15.08840080 19853,6917.88,95.438,540.447,539.044,0.0
53978.0,STARLINK-5148,PAYLOAD,2023-02-11 04:24:38,15.08839911,0.0001045,53.2159,218.1336,95.3016,264.8096,5.8751e-05,6.47e-06,0.0,0 STARLINK-5148,1 53978U 22125Q   23042.18377529  .00000647  00000-0  58751-4 0  9994,2 53978  53.2159 218.1336 0001045  95.3016 264.8096 15.08839911 19939,6917.881,95.438,540.469,539.023,0.0
53978.0,STARLINK-5148,PAYLOAD,2023-02-11 18:43:07,15.08834636,0.0001049,53.2156,215.4569,82.0579,278.0532,7.0643e-05,8.37e-06,0.0,0 STARLINK-5148,1 53978U 22125Q   23042.77994215  .00000837  00000-0  70643-4 0  9991,2 53978  53.2156 215.4569 0001049  82.0579 278.0532 15.08834636 20095,6917.897,95.438,540.487,539.036,0.0
53978.0,STARLINK-5148,PAYLOAD,2023-02-11 20:18:30,15.088351,0.0001154,53.2168,215.1595,85.084,275.0284,6.5993e-05,7.62e-06,0.0,0 STARLINK-5148,1 53978U 22125Q   23042.84618217  .00000762  00000-0  65993-4 0  9993,2 53978  53.2168 215.1595 0001154  85.0840 275.0284 15.08835100 20037,6917.895,95.438,540.559,538.962,0.0
53978.0,STARLINK-5148,PAYLOAD,2023-02-12 04:15:25,15.08838807,0.0001036,53.2151,213.6727,85.003,275.1081,7.8668e-05,9.64e-06,0.0,0 STARLINK-5148,1 53978U 22125Q   23043.17738016  .00000964  00000-0  78668-4 0  9997,2 53978  53.2151 213.6727 0001036  85.0030 275.1081 15.08838807 20087,6917.884,95.438,540.466,539.032,0.0
53978.0,STARLINK-5148,PAYLOAD,2023-02-12 20:09:16,15.08854811,0.0001044,53.2155,210.6983,79.7523,280.3587,0.00012302,1.671e-05,0.0,0 STARLINK-5148,1 53978U 22125Q   23043.83976957  .00001671  00000-0  12302-3 0  9996,2 53978  53.2155 210.6983 0001044  79.7523 280.3587 15.08854811 20259,6917.835,95.437,540.422,538.978,0.0
53978.0,STARLINK-5148,PAYLOAD,2023-02-13 10:27:45,15.08838487,0.0001355,53.2162,208.0246,98.1166,261.9979,0.00013086,1.795e-05,0.0,0 STARLINK-5148,1 53978U 22125Q   23044.43594127  .00001795  00000-0  13086-3 0  9995,2 53978  53.2162 208.0246 0001355  98.1166 261.9979 15.08838487 20344,6917.885,95.438,540.687,538.813,0.0
53978.0,STARLINK-5148,PAYLOAD,2023-02-13 13:38:31,15.08838902,0.0001288,53.2161,207.4298,98.2505,261.8633,0.00013497,1.861e-05,0.0,0 STARLINK-5148,1 53978U 22125Q   23044.56842116  .00001861  00000-0  13497-3 0  9993,2 53978  53.2161 207.4298 0001288  98.2505 261.8633 15.08838902 20298,6917.884,95.438,540.64,538.858,0.0
53978.0,STARLINK-5148,PAYLOAD,2023-02-13 20:00:03,15.08849816,0.0001175,53.2154,206.2391,91.8903,268.2224,0.00016578,2.352e-05,0.0,0 STARLINK-5148,1 53978U 22125Q   23044.83337298  .00002352  00000-0  16578-3 0  9992,2 53978  53.2154 206.2391 0001175  91.8903 268.2224 15.08849816 20403,6917.85,95.437,540.528,538.903,0.0
